#aV2019  1 19  0  0  0.00000000     288 DD+AD WGS84 FIT  NGA
## 2036 518400.00000000   300.00000000 58502 0.0000000000000
+   31     1  2  3  5  6  7  8  9 10 11 12 13 14 15 16 17 18
+         19 20 21 22 23 24 25 26 27 28 29 30 31 32  0  0  0
+          0  0  0  0  0  0  0  0  0  0  0  0  0  0  0  0  0
+          0  0  0  0  0  0  0  0  0  0  0  0  0  0  0  0  0
+          0  0  0  0  0  0  0  0  0  0  0  0  0  0  0  0  0
++         2  2  2  2  2  2  2  2  2  2  2  2  2  2  2  2  2
++         2  2  2  2  2  2  2  2  2  2  2  2  2  2  0  0  0
++         0  0  0  0  0  0  0  0  0  0  0  0  0  0  0  0  0
++         0  0  0  0  0  0  0  0  0  0  0  0  0  0  0  0  0
++         0  0  0  0  0  0  0  0  0  0  0  0  0  0  0  0  0
%c cc cc ccc ccc cccc cccc cccc cccc ccccc ccccc ccccc ccccc
%c cc cc ccc ccc cccc cccc cccc cccc ccccc ccccc ccccc ccccc
%f  0.0000000  0.000000000  0.00000000000  0.000000000000000
%f  0.0000000  0.000000000  0.00000000000  0.000000000000000
%i    0    0    0    0      0      0      0      0         0
%i    0    0    0    0      0      0      0      0         0
/*      NGA, ST. LOUIS,MO.                                  
/*   EPHEMERIS COMPUTED FROM 2 DAYS OF DATA                 
/*   EPOCHA v3 SMOOTHER                                     
/*   G1762 IERS2010 SATAF SATAPC                            
*  2019  1 19 23 25  0.00000000
P  1   7259.430240 -18689.813238 -17427.772485   -148.260218                    
V  1  19297.808764 -10447.737030  19731.984176     -0.064779                    
P  2 -21724.188691  14988.266439  -1155.648456   -117.606376                    
V  2   -165.697343  -3919.696185 -31675.601456     -0.100786                    
P  3  -3061.576437 -17237.354394 -20031.500479    178.272348                    
V  3  23025.274358  10602.321546 -12596.206365      0.023995                    
P  5 -17336.405158   6701.592368  18926.175233      0.864713                    
V  5 -21235.418610 -11809.073568 -14974.445630      0.001332                    
P  6 -22817.294971   4458.111909 -12827.075217    293.468920                    
V  6  12614.349873 -10535.612814 -25992.386603     -0.076783                    
P  7  -8175.643850 -13076.083650  21863.917708     48.535101                    
V  7  23182.569996 -14241.275937   -303.653342     -0.070923                    
P  8   6753.822181 -22655.022006  11968.044748   -129.676204                    
V  8   3221.301460  14995.886806  26858.142348     -0.014021                    
P  9  -8309.211651 -23339.113899   9517.811918    469.637271                    
V  9   2005.889787 -12326.647638 -28340.819097     -0.047044                    
P 10  24266.573373  10891.775397  -1831.381786    132.635817                    
V 10    938.336204   3387.802004  31557.067413     -0.066550                    
P 11   6940.770519 -24325.793860  -8995.328638   -672.923360                    
V 11   8868.072984  -7109.344176  27504.140000      0.054077                    
P 12   -399.486317  16213.900883 -21271.149783    274.980202                    
V 12 -22951.666274 -13129.439697  -9490.528581     -0.030966                    
P 13 -12515.316327  16562.857619  16429.699834    -77.744823                    
V 13   -283.000617 -21155.460718  20992.388955      0.013059                    
P 14  15091.723756    -96.781604 -21550.023927    -92.876819                    
V 14   -614.617769  28090.569638   -723.802016      0.006097                    
P 15  -3473.889315  24373.420710   9181.816680   -331.534188                    
V 15  -5538.786468 -11531.941668  28141.513907      0.015934                    
P 16  17275.510207  -4582.054695  19625.692812    -13.790257                    
V 16  20889.513555  13905.478876 -14594.457544     -0.023731                    
P 17 -13302.171691 -10634.831875 -20000.106083     -2.341111                    
V 17    917.027802 -26223.712307  12971.268012      0.054208                    
P 18  15567.406052 -19441.762632  -9488.661488     17.482788                    
V 18  10916.810979  -4397.252453  28500.479663      0.038208                    
P 19 -14918.461835    114.497323 -22267.173767   -361.563500                    
V 19   1294.889681 -27476.565818   -919.660214      0.040172                    
P 20  21027.810707  14177.481883   8003.562269    521.305607                    
V 20 -10871.419108   -390.295332  28703.345715      0.004201                    
P 21  11197.453827  11432.389548  22002.751834   -266.001689                    
V 21 -20933.660854  15604.669125   2740.386407      0.069790                    
P 22   5191.923475 -14984.492468 -21074.107454   -626.582153                    
V 22  25282.075737  10670.436856  -1296.154114     -0.085960                    
P 23  -1819.824302 -26268.712997     12.285252   -199.994354                    
V 23   3767.701628     90.480199 -31620.981518      0.012080                    
P 24 -10710.945552  20002.133739 -13686.091973    -61.019566                    
V 24 -15744.995332   7763.082588  24247.672783     -0.004814                    
P 25  11746.243703  18160.068892 -15783.229417   -708.337985                    
V 25 -18076.270982  -7620.458478 -22248.726940     -0.054413                    
P 26  23274.107557   1055.075398  12900.971045    101.109330                    
V 26  13712.067968   9205.741198 -25299.462253      0.105908                    
P 27  11918.509434 -14206.105722  18815.729846    -52.006796                    
V 27   2654.893265  24021.063439  16655.780119     -0.066953                    
P 28 -22408.665308 -14155.407105     89.604111    762.431938                    
V 28    614.899169  -2174.488012  32320.973667      0.011752                    
P 29   4041.843906  25416.098879   6550.131330    289.546609                    
V 29  -2062.212436   8299.074157 -30831.208250     -0.084552                    
P 30 -18200.489657  -5142.181652  18728.601033    -38.653350                    
V 30  19714.530172 -13347.357295  15333.734021     -0.061849                    
P 31  23946.354651  -6117.497613 -10291.417574     64.579193                    
V 31  -9947.027460   8541.917460 -27760.450505     -0.026454                    
P 32  15012.134783   7343.872935 -20627.159544   -267.059895                    
V 32    674.833932  26277.466752   9724.876327      0.173968                    
EOF
